STARLINK-36992          
1 68149U 26049H   26090.49961099  .00260101  00000+0  13159-2 0  9993
2 68149  97.2833 110.8520 0001204  68.6873 291.4524 15.80859384  2857
STARLINK-37060          
1 68150U 26049J   26090.49885803  .00240281  00000+0  12186-2 0  9999
2 68150  97.2835 110.8533 0001173  81.9102 278.2300 15.80857896  2854
STARLINK-37073          
1 68151U 26049K   26090.49813508 -.00201665  00000+0 -10889-2 0  9996
2 68151  97.2835 110.8542 0001464  73.4724 286.6705 15.80566265  2853
STARLINK-37049          
1 68152U 26049L   26090.49735670  .00241829  00000+0  12257-2 0  9995
2 68152  97.2835 110.8554 0001402  80.2623 279.8803 15.80866601  2853
STARLINK-37072          
1 68153U 26049M   26090.58335648 -.00000813  00000+0 -45841-5 0  9993
2 68153  97.2842 110.9402 0000911 101.0335  13.0897 15.75193322  4143
STARLINK-36241          
1 68154U 26049N   26090.51171321  .00211606  00000+0  13825-2 0  9999
2 68154  97.2836 110.8347 0001565 111.7722 248.3710 15.75227361  2852
STARLINK-37048          
1 68155U 26049P   26090.49359870  .00216364  00000+0  11009-2 0  9992
2 68155  97.2843 110.8600 0001189 119.7271 240.4116 15.80847483  2854
STARLINK-36313          
1 68156U 26049Q   26090.49435109  .00238137  00000+0  12081-2 0  9996
2 68156  97.2844 110.8583 0001375  71.7337 288.4081 15.80856748  2850
STARLINK-37064          
1 68157U 26049R   26090.49585409  .00232660  00000+0  11809-2 0  9998
2 68157  97.2844 110.8565 0001559  73.3341 286.8098 15.80860431  2852
STARLINK-37069          
1 68158U 26049S   26090.50818616  .00192552  00000+0  12616-2 0  9992
2 68158  97.2835 110.8398 0001495  72.8444 287.2985 15.75215128  2855
STARLINK-37053          
1 68159U 26049T   26090.49134413  .00197452  00000+0  10072-2 0  9995
2 68159  97.2849 110.8624 0001323 119.7086 240.4315 15.80843094  2859
STARLINK-36306          
1 68160U 26049U   26090.58335648  .00079375  00000+0  52915-3 0  9996
2 68160  97.2839 110.9278 0001534 109.0892 338.9772 15.75144025  4154
