CCSDS_OMM_VERS = 2.0
CREATION_DATE  = 
ORIGINATOR     = 

OBJECT_NAME    = STARLINK-36992
OBJECT_ID      = 2026-049H
CENTER_NAME    = EARTH
REF_FRAME      = TEME
TIME_SYSTEM    = UTC
MEAN_ELEMENT_THEORY = SGP/SGP4

EPOCH          = 2026-03-31T11:59:26.389536
MEAN_MOTION    = 15.80859384
ECCENTRICITY   = .00012048
INCLINATION    = 97.2833
RA_OF_ASC_NODE = 110.8520
ARG_OF_PERICENTER = 68.6873
MEAN_ANOMALY   = 291.4524

EPHEMERIS_TYPE = 0
CLASSIFICATION_TYPE = U
NORAD_CAT_ID   = 68149
ELEMENT_SET_NO = 999
REV_AT_EPOCH   = 285
BSTAR          = .13159483E-2
MEAN_MOTION_DOT = .260101E-2
MEAN_MOTION_DDOT = 0

CCSDS_OMM_VERS = 2.0
CREATION_DATE  = 
ORIGINATOR     = 

OBJECT_NAME    = STARLINK-37060
OBJECT_ID      = 2026-049J
CENTER_NAME    = EARTH
REF_FRAME      = TEME
TIME_SYSTEM    = UTC
MEAN_ELEMENT_THEORY = SGP/SGP4

EPOCH          = 2026-03-31T11:58:21.333792
MEAN_MOTION    = 15.80857896
ECCENTRICITY   = .00011736
INCLINATION    = 97.2835
RA_OF_ASC_NODE = 110.8533
ARG_OF_PERICENTER = 81.9102
MEAN_ANOMALY   = 278.2300

EPHEMERIS_TYPE = 0
CLASSIFICATION_TYPE = U
NORAD_CAT_ID   = 68150
ELEMENT_SET_NO = 999
REV_AT_EPOCH   = 285
BSTAR          = .12186041E-2
MEAN_MOTION_DOT = .240281E-2
MEAN_MOTION_DDOT = 0

CCSDS_OMM_VERS = 2.0
CREATION_DATE  = 
ORIGINATOR     = 

OBJECT_NAME    = STARLINK-37073
OBJECT_ID      = 2026-049K
CENTER_NAME    = EARTH
REF_FRAME      = TEME
TIME_SYSTEM    = UTC
MEAN_ELEMENT_THEORY = SGP/SGP4

EPOCH          = 2026-03-31T11:57:18.870912
MEAN_MOTION    = 15.80566265
ECCENTRICITY   = .0001464
INCLINATION    = 97.2835
RA_OF_ASC_NODE = 110.8542
ARG_OF_PERICENTER = 73.4724
MEAN_ANOMALY   = 286.6705

EPHEMERIS_TYPE = 0
CLASSIFICATION_TYPE = U
NORAD_CAT_ID   = 68151
ELEMENT_SET_NO = 999
REV_AT_EPOCH   = 285
BSTAR          = -.1088885E-2
MEAN_MOTION_DOT = -.201665E-2
MEAN_MOTION_DDOT = 0

CCSDS_OMM_VERS = 2.0
CREATION_DATE  = 
ORIGINATOR     = 

OBJECT_NAME    = STARLINK-37049
OBJECT_ID      = 2026-049L
CENTER_NAME    = EARTH
REF_FRAME      = TEME
TIME_SYSTEM    = UTC
MEAN_ELEMENT_THEORY = SGP/SGP4

EPOCH          = 2026-03-31T11:56:11.618880
MEAN_MOTION    = 15.80866601
ECCENTRICITY   = .00014021
INCLINATION    = 97.2835
RA_OF_ASC_NODE = 110.8554
ARG_OF_PERICENTER = 80.2623
MEAN_ANOMALY   = 279.8803

EPHEMERIS_TYPE = 0
CLASSIFICATION_TYPE = U
NORAD_CAT_ID   = 68152
ELEMENT_SET_NO = 999
REV_AT_EPOCH   = 285
BSTAR          = .12257438E-2
MEAN_MOTION_DOT = .241829E-2
MEAN_MOTION_DDOT = 0

CCSDS_OMM_VERS = 2.0
CREATION_DATE  = 
ORIGINATOR     = 

OBJECT_NAME    = STARLINK-37072
OBJECT_ID      = 2026-049M
CENTER_NAME    = EARTH
REF_FRAME      = TEME
TIME_SYSTEM    = UTC
MEAN_ELEMENT_THEORY = SGP/SGP4

EPOCH          = 2026-03-31T14:00:01.999872
MEAN_MOTION    = 15.75193322
ECCENTRICITY   = .00009116
INCLINATION    = 97.2842
RA_OF_ASC_NODE = 110.9402
ARG_OF_PERICENTER = 101.0335
MEAN_ANOMALY   = 13.0897

EPHEMERIS_TYPE = 0
CLASSIFICATION_TYPE = U
NORAD_CAT_ID   = 68153
ELEMENT_SET_NO = 999
REV_AT_EPOCH   = 414
BSTAR          = -.4584085E-5
MEAN_MOTION_DOT = -.813E-5
MEAN_MOTION_DDOT = 0

CCSDS_OMM_VERS = 2.0
CREATION_DATE  = 
ORIGINATOR     = 

OBJECT_NAME    = STARLINK-36241
OBJECT_ID      = 2026-049N
CENTER_NAME    = EARTH
REF_FRAME      = TEME
TIME_SYSTEM    = UTC
MEAN_ELEMENT_THEORY = SGP/SGP4

EPOCH          = 2026-03-31T12:16:52.021344
MEAN_MOTION    = 15.75227361
ECCENTRICITY   = .00015657
INCLINATION    = 97.2836
RA_OF_ASC_NODE = 110.8347
ARG_OF_PERICENTER = 111.7722
MEAN_ANOMALY   = 248.3710

EPHEMERIS_TYPE = 0
CLASSIFICATION_TYPE = U
NORAD_CAT_ID   = 68154
ELEMENT_SET_NO = 999
REV_AT_EPOCH   = 285
BSTAR          = .1382462E-2
MEAN_MOTION_DOT = .211606E-2
MEAN_MOTION_DDOT = 0

CCSDS_OMM_VERS = 2.0
CREATION_DATE  = 
ORIGINATOR     = 

OBJECT_NAME    = STARLINK-37048
OBJECT_ID      = 2026-049P
CENTER_NAME    = EARTH
REF_FRAME      = TEME
TIME_SYSTEM    = UTC
MEAN_ELEMENT_THEORY = SGP/SGP4

EPOCH          = 2026-03-31T11:50:46.927680
MEAN_MOTION    = 15.80847483
ECCENTRICITY   = .00011895
INCLINATION    = 97.2843
RA_OF_ASC_NODE = 110.8600
ARG_OF_PERICENTER = 119.7271
MEAN_ANOMALY   = 240.4116

EPHEMERIS_TYPE = 0
CLASSIFICATION_TYPE = U
NORAD_CAT_ID   = 68155
ELEMENT_SET_NO = 999
REV_AT_EPOCH   = 285
BSTAR          = .11009415E-2
MEAN_MOTION_DOT = .216364E-2
MEAN_MOTION_DDOT = 0

CCSDS_OMM_VERS = 2.0
CREATION_DATE  = 
ORIGINATOR     = 

OBJECT_NAME    = STARLINK-36313
OBJECT_ID      = 2026-049Q
CENTER_NAME    = EARTH
REF_FRAME      = TEME
TIME_SYSTEM    = UTC
MEAN_ELEMENT_THEORY = SGP/SGP4

EPOCH          = 2026-03-31T11:51:51.934176
MEAN_MOTION    = 15.80856748
ECCENTRICITY   = .00013758
INCLINATION    = 97.2844
RA_OF_ASC_NODE = 110.8583
ARG_OF_PERICENTER = 71.7337
MEAN_ANOMALY   = 288.4081

EPHEMERIS_TYPE = 0
CLASSIFICATION_TYPE = U
NORAD_CAT_ID   = 68156
ELEMENT_SET_NO = 999
REV_AT_EPOCH   = 285
BSTAR          = .12080999E-2
MEAN_MOTION_DOT = .238137E-2
MEAN_MOTION_DDOT = 0

CCSDS_OMM_VERS = 2.0
CREATION_DATE  = 
ORIGINATOR     = 

OBJECT_NAME    = STARLINK-37064
OBJECT_ID      = 2026-049R
CENTER_NAME    = EARTH
REF_FRAME      = TEME
TIME_SYSTEM    = UTC
MEAN_ELEMENT_THEORY = SGP/SGP4

EPOCH          = 2026-03-31T11:54:01.793376
MEAN_MOTION    = 15.80860431
ECCENTRICITY   = .00015591
INCLINATION    = 97.2844
RA_OF_ASC_NODE = 110.8565
ARG_OF_PERICENTER = 73.3341
MEAN_ANOMALY   = 286.8098

EPHEMERIS_TYPE = 0
CLASSIFICATION_TYPE = U
NORAD_CAT_ID   = 68157
ELEMENT_SET_NO = 999
REV_AT_EPOCH   = 285
BSTAR          = .11808737E-2
MEAN_MOTION_DOT = .23266E-2
MEAN_MOTION_DDOT = 0

CCSDS_OMM_VERS = 2.0
CREATION_DATE  = 
ORIGINATOR     = 

OBJECT_NAME    = STARLINK-37069
OBJECT_ID      = 2026-049S
CENTER_NAME    = EARTH
REF_FRAME      = TEME
TIME_SYSTEM    = UTC
MEAN_ELEMENT_THEORY = SGP/SGP4

EPOCH          = 2026-03-31T12:11:47.284224
MEAN_MOTION    = 15.75215128
ECCENTRICITY   = .00014955
INCLINATION    = 97.2835
RA_OF_ASC_NODE = 110.8398
ARG_OF_PERICENTER = 72.8444
MEAN_ANOMALY   = 287.2985

EPHEMERIS_TYPE = 0
CLASSIFICATION_TYPE = U
NORAD_CAT_ID   = 68158
ELEMENT_SET_NO = 999
REV_AT_EPOCH   = 285
BSTAR          = .1261552E-2
MEAN_MOTION_DOT = .192552E-2
MEAN_MOTION_DDOT = 0

CCSDS_OMM_VERS = 2.0
CREATION_DATE  = 
ORIGINATOR     = 

OBJECT_NAME    = STARLINK-37053
OBJECT_ID      = 2026-049T
CENTER_NAME    = EARTH
REF_FRAME      = TEME
TIME_SYSTEM    = UTC
MEAN_ELEMENT_THEORY = SGP/SGP4

EPOCH          = 2026-03-31T11:47:32.132832
MEAN_MOTION    = 15.80843094
ECCENTRICITY   = .00013238
INCLINATION    = 97.2849
RA_OF_ASC_NODE = 110.8624
ARG_OF_PERICENTER = 119.7086
MEAN_ANOMALY   = 240.4315

EPHEMERIS_TYPE = 0
CLASSIFICATION_TYPE = U
NORAD_CAT_ID   = 68159
ELEMENT_SET_NO = 999
REV_AT_EPOCH   = 285
BSTAR          = .1007174E-2
MEAN_MOTION_DOT = .197452E-2
MEAN_MOTION_DDOT = 0

CCSDS_OMM_VERS = 2.0
CREATION_DATE  = 
ORIGINATOR     = 

OBJECT_NAME    = STARLINK-36306
OBJECT_ID      = 2026-049U
CENTER_NAME    = EARTH
REF_FRAME      = TEME
TIME_SYSTEM    = UTC
MEAN_ELEMENT_THEORY = SGP/SGP4

EPOCH          = 2026-03-31T14:00:01.999872
MEAN_MOTION    = 15.75144025
ECCENTRICITY   = .00015342
INCLINATION    = 97.2839
RA_OF_ASC_NODE = 110.9278
ARG_OF_PERICENTER = 109.0892
MEAN_ANOMALY   = 338.9772

EPHEMERIS_TYPE = 0
CLASSIFICATION_TYPE = U
NORAD_CAT_ID   = 68160
ELEMENT_SET_NO = 999
REV_AT_EPOCH   = 415
BSTAR          = .52914683E-3
MEAN_MOTION_DOT = .79375E-3
MEAN_MOTION_DDOT = 0

